LEMUR-2-CELIJO-SB-PK    
1 66781U 25276DW  26185.44660039  .00009663  00000+0  77671-3 0  9998
2 66781  97.5205 255.6558 0007587  90.9208 269.2885 15.00190777 25216
LEMUR-2-FINNIAN         
1 66782U 25276DX  26185.08582856  .00003556  00000+0  28654-3 0  9991
2 66782  97.5332 255.5473 0008320  39.2121 320.9704 15.00507764 22534
LEMUR-2-STARLIGHT       
1 66783U 25276DY  26185.45748734  .00009013  00000+0  74170-3 0  9990
2 66783  97.5224 255.5056 0014599  78.2927 281.9933 14.99246364 32785
LEMUR-2-TARTIFLETTE     
1 66784U 25276DZ  26185.45580624  .00008381  00000+0  69022-3 0  9990
2 66784  97.5228 255.5123 0013680  86.0157 274.2631 14.99248120 32789
LEMUR-2-VUKASIN         
1 66785U 25276EA  26183.16743319  .00001857  00000+0  15220-3 0  9991
2 66785  97.5271 253.6348 0004953  89.5693 270.6099 15.00442804 32395
LEMUR-2-HOTSPUR-TOM     
1 66786U 25276EB  26185.64976931  .00012682  00000+0  10437-2 0  9997
2 66786  97.5219 255.6770 0014036  76.9012 283.3777 14.99161384 32748
LEMUR-2-MYRA            
1 66787U 25276EC  26185.46699360  .00014309  00000+0  11348-2 0  9996
2 66787  97.5211 255.7828 0018342  86.7296 273.6026 15.00498915 32805
LEMUR-2 FIKRETDENGIZ    
1 67363U 26004A   26185.74812862  .00007612  00000+0  82448-3 0  9991
2 67363  97.8023 184.0376 0010585  84.7168 275.5256 14.88464943 25895
TWILIGHT-1 OBJECT B     
1 67364U 26004B   26185.71303457  .00002794  00000+0  31184-3 0  9991
2 67364  97.8065 184.0096 0010194  75.3271 284.9075 14.87770543 25896
LEMUR-2-MARIO-SOUSA     
1 67365U 26004C   26185.93109035  .00007339  00000+0  79123-3 0  9997
2 67365  97.7994 184.2129 0010168  85.5003 274.7375 14.88667918 25930
LEMUR-2-SONNENBLUME     
1 67367U 26004E   26185.25985628  .00003644  00000+0  39860-3 0  9993
2 67367  97.7989 183.5297 0009714  88.2038 272.0292 14.88408585 25838
LEMUR-2-WOBLER          
1 67368U 26004F   26185.72140651  .00006749  00000+0  72853-3 0  9993
2 67368  97.8041 184.1241 0009905  78.6329 281.6001 14.88647395 25909
LEMUR-2-GRAM-E-SUE      
1 67370U 26004H   26185.71283065  .00004076  00000+0  44360-3 0  9995
2 67370  97.7976 183.9917 0008842  89.0463 271.1767 14.88557864 25903
LEMUR-2-KATIE           
1 67387U 26004AA  26185.74851611  .00010015  00000+0  10383-2 0  9991
2 67387  97.8041 184.5435 0004339  57.8046 302.3593 14.90186381 25925
LEMUR-2-HCS-BAZUS       
1 67388U 26004AB  26185.74703379  .00004739  00000+0  49428-3 0  9998
2 67388  97.8029 184.5216 0003750  56.4546 303.7029 14.90225259 25922
